FENGYUN 1C DEB          
1 30936U 99025BAA 17345.87642567  .00000229  00000-0  13119-3 0  9992
2 30936  98.9016  10.6676 0050546  60.0032  66.0345 14.18305935556596
